start=new Date('2022-06-17T00:00:00.000Z').valueOf();
sats=[{"EPHEMERIS_TYPE":"0","NORAD_CAT_ID":"48136","MEAN_ANOMALY":"305.4315","ARG_OF_PERICENTER":"54.6819","MEAN_ELEMENT_THEORY":"SGP4","PERIAPSIS":"546.130","OBJECT_ID":"2021-027AW","GP_ID":"206288456","REF_FRAME":"TEME","OBJECT_TYPE":"PAYLOAD","MEAN_MOTION_DDOT":"0.0000000000000","ECCENTRICITY":"0.00015480","TLE_LINE2":"2 48136  53.0532 168.8262 0001548  54.6819 305.4315 15.06403854 67039","MEAN_MOTION":"15.06403854","EPOCH":"2022-06-16T00:43:30.114624","PERIOD":"95.592","BSTAR":"0.00000917240000","COUNTRY_CODE":"US","FILE":"3497002","APOAPSIS":"548.274","SEMIMAJOR_AXIS":"6925.337","CENTER_NAME":"EARTH","OBJECT_NAME":"STARLINK-2479","CLASSIFICATION_TYPE":"U","TIME_SYSTEM":"UTC","LAUNCH_DATE":"2021-04-07","TLE_LINE1":"1 48136U 21027AW  22167.03020966 -.00000145  00000-0  91724-5 0  9997","DECAY_DATE":null,"ELEMENT_SET_NO":"999","SITE":"AFETR","RCS_SIZE":"LARGE","MEAN_MOTION_DOT":"-0.00000145","REV_AT_EPOCH":"6703","INCLINATION":"53.0532","RA_OF_ASC_NODE":"168.8262"},{"TLE_LINE2":"2 48137  53.0538 148.9961 0001978  61.0665 299.0523 15.06392341 67306","ECCENTRICITY":"0.00019780","MEAN_MOTION_DDOT":"0.0000000000000","REF_FRAME":"TEME","OBJECT_TYPE":"PAYLOAD","OBJECT_ID":"2021-027AX","PERIAPSIS":"545.867","GP_ID":"206287212","MEAN_ANOMALY":"299.0523","ARG_OF_PERICENTER":"61.0665","MEAN_ELEMENT_THEORY":"SGP4","EPHEMERIS_TYPE":"0","NORAD_CAT_ID":"48137","COUNTRY_CODE":"US","FILE":"3497002","APOAPSIS":"548.607","BSTAR":"0.00003118600000","EPOCH":"2022-06-15T23:43:49.633824","PERIOD":"95.593","MEAN_MOTION":"15.06392341","DECAY_DATE":null,"ELEMENT_SET_NO":"999","TLE_LINE1":"1 48137U 21027AX  22166.98876891  .00000183  00000-0  31186-4 0  9993","TIME_SYSTEM":"UTC","LAUNCH_DATE":"2021-04-07","CLASSIFICATION_TYPE":"U","OBJECT_NAME":"STARLINK-2480","CENTER_NAME":"EARTH","SEMIMAJOR_AXIS":"6925.372","RA_OF_ASC_NODE":"148.9961","INCLINATION":"53.0538","REV_AT_EPOCH":"6730","MEAN_MOTION_DOT":"0.00000183","RCS_SIZE":"LARGE","SITE":"AFETR"},{"RCS_SIZE":"LARGE","SITE":"AFETR","RA_OF_ASC_NODE":"171.5925","INCLINATION":"53.0543","REV_AT_EPOCH":"6694","MEAN_MOTION_DOT":"0.00001332","CLASSIFICATION_TYPE":"U","OBJECT_NAME":"STARLINK-2481","CENTER_NAME":"EARTH","SEMIMAJOR_AXIS":"6925.335","DECAY_DATE":null,"ELEMENT_SET_NO":"999","TLE_LINE1":"1 48138U 21027AY  22166.41929169  .00001332  00000-0  10832-3 0  9990","TIME_SYSTEM":"UTC","LAUNCH_DATE":"2021-04-07","MEAN_MOTION":"15.06404431","COUNTRY_CODE":"US","FILE":"3496794","APOAPSIS":"548.262","BSTAR":"0.00010832000000","EPOCH":"2022-06-15T10:03:46.802016","PERIOD":"95.592","REF_FRAME":"TEME","OBJECT_TYPE":"PAYLOAD","PERIAPSIS":"546.138","OBJECT_ID":"2021-027AY","GP_ID":"206207020","ARG_OF_PERICENTER":"58.6329","MEAN_ANOMALY":"301.4809","MEAN_ELEMENT_THEORY":"SGP4","EPHEMERIS_TYPE":"0","NORAD_CAT_ID":"48138","TLE_LINE2":"2 48138  53.0543 171.5925 0001534  58.6329 301.4809 15.06404431 66940","ECCENTRICITY":"0.00015340","MEAN_MOTION_DDOT":"0.0000000000000"},{"SITE":"AFETR","RCS_SIZE":"LARGE","MEAN_MOTION_DOT":"0.00000036","REV_AT_EPOCH":"6726","RA_OF_ASC_NODE":"150.4357","INCLINATION":"53.0549","CENTER_NAME":"EARTH","SEMIMAJOR_AXIS":"6925.383","CLASSIFICATION_TYPE":"U","OBJECT_NAME":"STARLINK-2482","TLE_LINE1":"1 48139U 21027AZ  22166.67547049  .00000036  00000-0  21313-4 0  9999","LAUNCH_DATE":"2021-04-07","TIME_SYSTEM":"UTC","ELEMENT_SET_NO":"999","DECAY_DATE":null,"MEAN_MOTION":"15.06388911","BSTAR":"0.00002131300000","PERIOD":"95.593","EPOCH":"2022-06-15T16:12:40.650336","FILE":"3496999","APOAPSIS":"548.453","COUNTRY_CODE":"US","MEAN_ANOMALY":"303.2578","ARG_OF_PERICENTER":"56.8577","MEAN_ELEMENT_THEORY":"SGP4","NORAD_CAT_ID":"48139","EPHEMERIS_TYPE":"0","OBJECT_TYPE":"PAYLOAD","REF_FRAME":"TEME","GP_ID":"206236456","OBJECT_ID":"2021-027AZ","PERIAPSIS":"546.043","ECCENTRICITY":"0.00017400","MEAN_MOTION_DDOT":"0.0000000000000","TLE_LINE2":"2 48139  53.0549 150.4357 0001740  56.8577 303.2578 15.06388911 67269"},{"SEMIMAJOR_AXIS":"6925.339","CENTER_NAME":"EARTH","OBJECT_NAME":"STARLINK-2483","CLASSIFICATION_TYPE":"U","TIME_SYSTEM":"UTC","LAUNCH_DATE":"2021-04-07","TLE_LINE1":"1 48140U 21027BA  22167.04126998  .00001256  00000-0  10320-3 0  9999","DECAY_DATE":null,"ELEMENT_SET_NO":"999","SITE":"AFETR","RCS_SIZE":"LARGE","MEAN_MOTION_DOT":"0.00001256","REV_AT_EPOCH":"6703","INCLINATION":"53.0535","RA_OF_ASC_NODE":"168.7946","EPHEMERIS_TYPE":"0","NORAD_CAT_ID":"48140","MEAN_ELEMENT_THEORY":"SGP4","MEAN_ANOMALY":"300.2239","ARG_OF_PERICENTER":"59.8906","PERIAPSIS":"546.114","OBJECT_ID":"2021-027BA","GP_ID":"206288957","REF_FRAME":"TEME","OBJECT_TYPE":"PAYLOAD","MEAN_MOTION_DDOT":"0.0000000000000","ECCENTRICITY":"0.00015750","TLE_LINE2":"2 48140  53.0535 168.7946 0001575  59.8906 300.2239 15.06402990 67037","MEAN_MOTION":"15.06402990","EPOCH":"2022-06-16T00:59:25.726272","PERIOD":"95.592","BSTAR":"0.00010320000000","COUNTRY_CODE":"US","FILE":"3497002","APOAPSIS":"548.295"},{"MEAN_MOTION":"15.06402812","COUNTRY_CODE":"US","FILE":"3496999","APOAPSIS":"548.731","EPOCH":"2022-06-15T17:34:56.230464","PERIOD":"95.592","BSTAR":"-0.00000681290000","OBJECT_ID":"2021-027BB","PERIAPSIS":"545.679","GP_ID":"206237958","REF_FRAME":"TEME","OBJECT_TYPE":"PAYLOAD","EPHEMERIS_TYPE":"0","NORAD_CAT_ID":"48141","MEAN_ANOMALY":"305.0171","ARG_OF_PERICENTER":"55.1024","MEAN_ELEMENT_THEORY":"SGP4","TLE_LINE2":"2 48141  53.0531 170.1669 0002203  55.1024 305.0171 15.06402812 67000","MEAN_MOTION_DDOT":"0.0000000000000","ECCENTRICITY":"0.00022030","RCS_SIZE":"LARGE","SITE":"AFETR","INCLINATION":"53.0531","RA_OF_ASC_NODE":"170.1669","MEAN_MOTION_DOT":"-0.00000383","REV_AT_EPOCH":"6700","OBJECT_NAME":"STARLINK-2484","CLASSIFICATION_TYPE":"U","SEMIMAJOR_AXIS":"6925.340","CENTER_NAME":"EARTH","DECAY_DATE":null,"ELEMENT_SET_NO":"999","LAUNCH_DATE":"2021-04-07","TIME_SYSTEM":"UTC","TLE_LINE1":"1 48141U 21027BB  22166.73259526 -.00000383  00000-0 -68129-5 0  9993"},{"GP_ID":"206287462","OBJECT_ID":"2021-027BC","PERIAPSIS":"546.126","OBJECT_TYPE":"PAYLOAD","REF_FRAME":"TEME","NORAD_CAT_ID":"48142","EPHEMERIS_TYPE":"0","MEAN_ELEMENT_THEORY":"SGP4","MEAN_ANOMALY":"297.2633","ARG_OF_PERICENTER":"62.8513","TLE_LINE2":"2 48142  53.0544 148.9652 0001546  62.8513 297.2633 15.06405570 67310","MEAN_MOTION_DDOT":"0.0000000000000","ECCENTRICITY":"0.00015460","MEAN_MOTION":"15.06405570","FILE":"3497002","APOAPSIS":"548.267","COUNTRY_CODE":"US","PERIOD":"95.592","EPOCH":"2022-06-16T00:05:03.640704","BSTAR":"0.00005370300000","OBJECT_NAME":"STARLINK-2485","CLASSIFICATION_TYPE":"U","SEMIMAJOR_AXIS":"6925.331","CENTER_NAME":"EARTH","ELEMENT_SET_NO":"999","DECAY_DATE":null,"LAUNCH_DATE":"2021-04-07","TIME_SYSTEM":"UTC","TLE_LINE1":"1 48142U 21027BC  22167.00351436  .00000519  00000-0  53703-4 0  9998","RCS_SIZE":"LARGE","SITE":"AFETR","INCLINATION":"53.0544","RA_OF_ASC_NODE":"148.9652","MEAN_MOTION_DOT":"0.00000519","REV_AT_EPOCH":"6731"},{"MEAN_MOTION":"15.06398045","COUNTRY_CODE":"US","FILE":"3497002","APOAPSIS":"548.418","BSTAR":"0.00003590900000","EPOCH":"2022-06-15T23:40:28.056576","PERIOD":"95.592","REF_FRAME":"TEME","OBJECT_TYPE":"PAYLOAD","PERIAPSIS":"546.021","OBJECT_ID":"2021-027BD","GP_ID":"206288710","ARG_OF_PERICENTER":"62.8372","MEAN_ANOMALY":"297.2794","MEAN_ELEMENT_THEORY":"SGP4","EPHEMERIS_TYPE":"0","NORAD_CAT_ID":"48143","TLE_LINE2":"2 48143  53.0547 104.0378 0001731  62.8372 297.2794 15.06398045 67935","ECCENTRICITY":"0.00017310","MEAN_MOTION_DDOT":"0.0000000000000","RCS_SIZE":"LARGE","SITE":"AFETR","RA_OF_ASC_NODE":"104.0378","INCLINATION":"53.0547","MEAN_MOTION_DOT":"0.00000253","REV_AT_EPOCH":"6793","CLASSIFICATION_TYPE":"U","OBJECT_NAME":"STARLINK-2486","CENTER_NAME":"EARTH","SEMIMAJOR_AXIS":"6925.355","DECAY_DATE":null,"ELEMENT_SET_NO":"999","TLE_LINE1":"1 48143U 21027BD  22166.98643584  .00000253  00000-0  35909-4 0  9996","LAUNCH_DATE":"2021-04-07","TIME_SYSTEM":"UTC"},{"CENTER_NAME":"EARTH","SEMIMAJOR_AXIS":"6925.330","CLASSIFICATION_TYPE":"U","OBJECT_NAME":"STARLINK-2487","TLE_LINE1":"1 48144U 21027BE  22166.94453854  .00000135  00000-0  27982-4 0  9993","LAUNCH_DATE":"2021-04-07","TIME_SYSTEM":"UTC","DECAY_DATE":null,"ELEMENT_SET_NO":"999","SITE":"AFETR","RCS_SIZE":"LARGE","MEAN_MOTION_DOT":"0.00000135","REV_AT_EPOCH":"6729","RA_OF_ASC_NODE":"149.2255","INCLINATION":"53.0547","ARG_OF_PERICENTER":"77.3411","MEAN_ANOMALY":"282.7753","MEAN_ELEMENT_THEORY":"SGP4","EPHEMERIS_TYPE":"0","NORAD_CAT_ID":"48144","REF_FRAME":"TEME","OBJECT_TYPE":"PAYLOAD","OBJECT_ID":"2021-027BE","PERIAPSIS":"546.108","GP_ID":"206288457","ECCENTRICITY":"0.00015700","MEAN_MOTION_DDOT":"0.0000000000000","TLE_LINE2":"2 48144  53.0547 149.2255 0001570  77.3411 282.7753 15.06405987 67294","MEAN_MOTION":"15.06405987","BSTAR":"0.00002798200000","EPOCH":"2022-06-15T22:40:08.129856","PERIOD":"95.592","COUNTRY_CODE":"US","APOAPSIS":"548.282","FILE":"3497002"},{"COUNTRY_CODE":"US","FILE":"3497002","APOAPSIS":"548.548","EPOCH":"2022-06-15T22:45:26.001504","PERIOD":"95.592","BSTAR":"0.00002641200000","MEAN_MOTION":"15.06407353","TLE_LINE2":"2 48145  53.0556 149.2128 0001959  54.9790 305.1383 15.06407353 67306","MEAN_MOTION_DDOT":"0.0000000000000","ECCENTRICITY":"0.00019590","OBJECT_ID":"2021-027BF","PERIAPSIS":"545.834","GP_ID":"206287213","REF_FRAME":"TEME","OBJECT_TYPE":"PAYLOAD","EPHEMERIS_TYPE":"0","NORAD_CAT_ID":"48145","MEAN_ANOMALY":"305.1383","ARG_OF_PERICENTER":"54.9790","MEAN_ELEMENT_THEORY":"SGP4","INCLINATION":"53.0556","RA_OF_ASC_NODE":"149.2128","MEAN_MOTION_DOT":"0.00000112","REV_AT_EPOCH":"6730","RCS_SIZE":"MEDIUM","SITE":"AFETR","DECAY_DATE":null,"ELEMENT_SET_NO":"999","TIME_SYSTEM":"UTC","LAUNCH_DATE":"2021-04-07","TLE_LINE1":"1 48145U 21027BF  22166.94821761  .00000112  00000-0  26412-4 0  9992","OBJECT_NAME":"STARLINK-2488","CLASSIFICATION_TYPE":"U","SEMIMAJOR_AXIS":"6925.326","CENTER_NAME":"EARTH"}];
